{"type":"FeatureCollection","generado":"2026-10-05T16:52:39.806156+00:00","fuente":"NOAA GOES-19 GLM L2 (LCFA)","ventana_min":30,"features":[{"type":"Feature","geometry":{"type":"Point","coordinates":[-74.055,3.522]},"properties":{"t":1791217900,"edad_min":21.0,"e_fj":193.3}},{"type":"Feature","geometry":{"type":"Point","coordinates":[-75.488,4.703]},"properties":{"t":1791217940,"edad_min":20.3,"e_fj":184.3}},{"type":"Feature","geometry":{"type":"Point","coordinates":[-75.419,4.706]},"properties":{"t":1791218060,"edad_min":18.3,"e_fj":26.3}},{"type":"Feature","geometry":{"type":"Point","coordinates":[-75.421,4.706]},"properties":{"t":1791218120,"edad_min":17.3,"e_fj":96.3}},{"type":"Feature","geometry":{"type":"Point","coordinates":[-75.414,4.706]},"properties":{"t":1791218180,"edad_min":16.3,"e_fj":9.3}},{"type":"Feature","geometry":{"type":"Point","coordinates":[-75.413,4.707]},"properties":{"t":1791218200,"edad_min":16.0,"e_fj":15.3}},{"type":"Feature","geometry":{"type":"Point","coordinates":[-75.413,4.713]},"properties":{"t":1791218240,"edad_min":15.3,"e_fj":17.3}},{"type":"Feature","geometry":{"type":"Point","coordinates":[-75.414,4.706]},"properties":{"t":1791218280,"edad_min":14.7,"e_fj":10.3}},{"type":"Feature","geometry":{"type":"Point","coordinates":[-75.415,4.706]},"properties":{"t":1791218340,"edad_min":13.7,"e_fj":63.3}},{"type":"Feature","geometry":{"type":"Point","coordinates":[-75.412,4.924]},"properties":{"t":1791218380,"edad_min":13.0,"e_fj":7.3}},{"type":"Feature","geometry":{"type":"Point","coordinates":[-75.413,4.707]},"properties":{"t":1791218380,"edad_min":13.0,"e_fj":8.3}},{"type":"Feature","geometry":{"type":"Point","coordinates":[-75.423,4.719]},"properties":{"t":1791218440,"edad_min":12.0,"e_fj":41.3}},{"type":"Feature","geometry":{"type":"Point","coordinates":[-75.412,4.93]},"properties":{"t":1791218460,"edad_min":11.7,"e_fj":23.3}},{"type":"Feature","geometry":{"type":"Point","coordinates":[-75.412,4.909]},"properties":{"t":1791218500,"edad_min":11.0,"e_fj":6.3}},{"type":"Feature","geometry":{"type":"Point","coordinates":[-75.424,4.71]},"properties":{"t":1791218500,"edad_min":11.0,"e_fj":46.3}},{"type":"Feature","geometry":{"type":"Point","coordinates":[-73.105,4.772]},"properties":{"t":1791218540,"edad_min":10.3,"e_fj":6.3}},{"type":"Feature","geometry":{"type":"Point","coordinates":[-75.413,4.935]},"properties":{"t":1791218560,"edad_min":10.0,"e_fj":20.3}},{"type":"Feature","geometry":{"type":"Point","coordinates":[-73.105,4.772]},"properties":{"t":1791218600,"edad_min":9.3,"e_fj":30.3}},{"type":"Feature","geometry":{"type":"Point","coordinates":[-75.474,4.702]},"properties":{"t":1791218620,"edad_min":9.0,"e_fj":427.3}},{"type":"Feature","geometry":{"type":"Point","coordinates":[-71.087,4.113]},"properties":{"t":1791218640,"edad_min":8.7,"e_fj":6.3}},{"type":"Feature","geometry":{"type":"Point","coordinates":[-73.1,4.767]},"properties":{"t":1791218660,"edad_min":8.3,"e_fj":19.3}},{"type":"Feature","geometry":{"type":"Point","coordinates":[-75.375,4.924]},"properties":{"t":1791218660,"edad_min":8.3,"e_fj":62.3}},{"type":"Feature","geometry":{"type":"Point","coordinates":[-75.4,4.93]},"properties":{"t":1791218700,"edad_min":7.7,"e_fj":31.3}},{"type":"Feature","geometry":{"type":"Point","coordinates":[-75.367,4.925]},"properties":{"t":1791218740,"edad_min":7.0,"e_fj":26.3}},{"type":"Feature","geometry":{"type":"Point","coordinates":[-73.105,4.772]},"properties":{"t":1791218740,"edad_min":7.0,"e_fj":4.3}},{"type":"Feature","geometry":{"type":"Point","coordinates":[-71.088,4.099]},"properties":{"t":1791218740,"edad_min":7.0,"e_fj":38.3}},{"type":"Feature","geometry":{"type":"Point","coordinates":[-75.424,4.714]},"properties":{"t":1791218740,"edad_min":7.0,"e_fj":28.3}},{"type":"Feature","geometry":{"type":"Point","coordinates":[-75.392,4.901]},"properties":{"t":1791218860,"edad_min":5.0,"e_fj":438.3}},{"type":"Feature","geometry":{"type":"Point","coordinates":[-71.087,4.101]},"properties":{"t":1791218860,"edad_min":5.0,"e_fj":9.3}},{"type":"Feature","geometry":{"type":"Point","coordinates":[-67.202,5.784]},"properties":{"t":1791218880,"edad_min":4.7,"e_fj":3.3}},{"type":"Feature","geometry":{"type":"Point","coordinates":[-75.379,4.933]},"properties":{"t":1791218940,"edad_min":3.7,"e_fj":40.3}},{"type":"Feature","geometry":{"type":"Point","coordinates":[-67.216,5.767]},"properties":{"t":1791218980,"edad_min":3.0,"e_fj":13.3}},{"type":"Feature","geometry":{"type":"Point","coordinates":[-67.281,5.774]},"properties":{"t":1791219020,"edad_min":2.3,"e_fj":19.3}},{"type":"Feature","geometry":{"type":"Point","coordinates":[-67.301,5.719]},"properties":{"t":1791219060,"edad_min":1.7,"e_fj":82.3}},{"type":"Feature","geometry":{"type":"Point","coordinates":[-67.276,5.746]},"properties":{"t":1791219100,"edad_min":1.0,"e_fj":15.3}},{"type":"Feature","geometry":{"type":"Point","coordinates":[-75.426,4.707]},"properties":{"t":1791219100,"edad_min":1.0,"e_fj":49.3}},{"type":"Feature","geometry":{"type":"Point","coordinates":[-71.087,4.089]},"properties":{"t":1791219120,"edad_min":0.7,"e_fj":19.3}}]}